{"type": "FeatureCollection", "features": [ {"type": "Feature", "properties": {"norad_id": 37532, "name": "COSMOS 2251 DEB", "group": "cosmos-2251-debris", "lat": 36.69538619324692, "lon": 4.4343373794604135, "alt_km": 757.769246330111, "timestamp": "2025-12-22T23:36:21.114538+00:00", "meta": {"OBJECT_NAME": "COSMOS 2251 DEB", "OBJECT_ID": "1993-036BNM", "EPOCH": "2025-12-14T09:22:45.259968", "MEAN_MOTION": 14.42410404, "ECCENTRICITY": 0.00160101, "INCLINATION": 74.0496, "RA_OF_ASC_NODE": 212.6604, "ARG_OF_PERICENTER": 313.2255, "MEAN_ANOMALY": 226.6563, "EPHEMERIS_TYPE": 0, "CLASSIFICATION_TYPE": "U", "NORAD_CAT_ID": 37532, "ELEMENT_SET_NO": 999, "REV_AT_EPOCH": 84939, "BSTAR": 0.00027461522, "MEAN_MOTION_DOT": 8.83e-06, "MEAN_MOTION_DDOT": 0}, "tle": {"line1": "1 37532U 93036BNM 25348.39080162  .00000883  00000+0  27462-3 0  9994", "line2": "2 37532  74.0496 212.6604 0016010 313.2255 226.6563 14.42410404849399"}}, "geometry": {"type": "Point", "coordinates": [4.4343373794604135, 36.69538619324692]}}, {"type": "Feature", "properties": {"norad_id": 37533, "name": "COSMOS 2251 DEB", "group": "cosmos-2251-debris", "lat": -18.298565950972215, "lon": -0.8298553911143776, "alt_km": 756.33786166755, "timestamp": "2025-12-22T23:36:21.114548+00:00", "meta": {"OBJECT_NAME": "COSMOS 2251 DEB", "OBJECT_ID": "1993-036BNN", "EPOCH": "2025-12-17T06:38:38.162976", "MEAN_MOTION": 14.12190824, "ECCENTRICITY": 0.0157786, "INCLINATION": 74.0692, "RA_OF_ASC_NODE": 183.8069, "ARG_OF_PERICENTER": 239.4795, "MEAN_ANOMALY": 119.0691, "EPHEMERIS_TYPE": 0, "CLASSIFICATION_TYPE": "U", "NORAD_CAT_ID": 37533, "ELEMENT_SET_NO": 999, "REV_AT_EPOCH": 62985, "BSTAR": 0.0010470743, "MEAN_MOTION_DOT": 2.138e-05, "MEAN_MOTION_DDOT": 0}, "tle": {"line1": "1 37533U 93036BNN 25351.27683059  .00002138  00000+0  10471-2 0  9996", "line2": "2 37533  74.0692 183.8069 0157786 239.4795 119.0691 14.12190824629858"}}, "geometry": {"type": "Point", "coordinates": [-0.8298553911143776, -18.298565950972215]}}, {"type": "Feature", "properties": {"norad_id": 37535, "name": "COSMOS 2251 DEB", "group": "cosmos-2251-debris", "lat": 26.215168336437536, "lon": 62.09534157524121, "alt_km": 715.2002719584534, "timestamp": "2025-12-22T23:36:21.114558+00:00", "meta": {"OBJECT_NAME": "COSMOS 2251 DEB", "OBJECT_ID": "1993-036BNQ", "EPOCH": "2025-12-22T12:14:49.178688", "MEAN_MOTION": 14.58516749, "ECCENTRICITY": 0.00272159, "INCLINATION": 74.0234, "RA_OF_ASC_NODE": 54.8871, "ARG_OF_PERICENTER": 192.5305, "MEAN_ANOMALY": 230.961, "EPHEMERIS_TYPE": 0, "CLASSIFICATION_TYPE": "U", "NORAD_CAT_ID": 37535, "ELEMENT_SET_NO": 999, "REV_AT_EPOCH": 85467, "BSTAR": 0.00067042494, "MEAN_MOTION_DOT": 3.102e-05, "MEAN_MOTION_DDOT": 0}, "tle": {"line1": "1 37535U 93036BNQ 25356.51029142  .00003102  00000+0  67042-3 0  9996", "line2": "2 37535  74.0234  54.8871 0027215 192.5305 230.9610 14.58516749854671"}}, "geometry": {"type": "Point", "coordinates": [62.09534157524121, 26.215168336437536]}}, {"type": "Feature", "properties": {"norad_id": 37537, "name": "COSMOS 2251 DEB", "group": "cosmos-2251-debris", "lat": 13.925627237025761, "lon": 62.17121512370871, "alt_km": 795.7094761744156, "timestamp": "2025-12-22T23:36:21.114568+00:00", "meta": {"OBJECT_NAME": "COSMOS 2251 DEB", "OBJECT_ID": "1993-036BNS", "EPOCH": "2025-12-21T23:27:31.159008", "MEAN_MOTION": 14.37503433, "ECCENTRICITY": 0.00506975, "INCLINATION": 74.0118, "RA_OF_ASC_NODE": 248.1014, "ARG_OF_PERICENTER": 25.8838, "MEAN_ANOMALY": 334.4834, "EPHEMERIS_TYPE": 0, "CLASSIFICATION_TYPE": "U", "NORAD_CAT_ID": 37537, "ELEMENT_SET_NO": 999, "REV_AT_EPOCH": 85166, "BSTAR": 0.00018759264, "MEAN_MOTION_DOT": 5.44e-06, "MEAN_MOTION_DDOT": 0}, "tle": {"line1": "1 37537U 93036BNS 25355.97744397  .00000544  00000+0  18759-3 0  9991", "line2": "2 37537  74.0118 248.1014 0050697  25.8838 334.4834 14.37503433851667"}}, "geometry": {"type": "Point", "coordinates": [62.17121512370871, 13.925627237025761]}}, {"type": "Feature", "properties": {"norad_id": 37546, "name": "COSMOS 2251 DEB", "group": "cosmos-2251-debris", "lat": 33.889688347117605, "lon": 88.8841574940197, "alt_km": 621.165169802076, "timestamp": "2025-12-22T23:36:21.114578+00:00", "meta": {"OBJECT_NAME": "COSMOS 2251 DEB", "OBJECT_ID": "1993-036BPB", "EPOCH": "2025-12-22T05:36:41.418144", "MEAN_MOTION": 14.80847243, "ECCENTRICITY": 0.00051432, "INCLINATION": 74.0225, "RA_OF_ASC_NODE": 79.2675, "ARG_OF_PERICENTER": 73.5105, "MEAN_ANOMALY": 286.6636, "EPHEMERIS_TYPE": 0, "CLASSIFICATION_TYPE": "U", "NORAD_CAT_ID": 37546, "ELEMENT_SET_NO": 999, "REV_AT_EPOCH": 66028, "BSTAR": 0.0026855013, "MEAN_MOTION_DOT": 0.00020767, "MEAN_MOTION_DDOT": 0}, "tle": {"line1": "1 37546U 93036BPB 25356.23381271  .00020767  00000+0  26855-2 0  9993", "line2": "2 37546  74.0225  79.2675 0005143  73.5105 286.6636 14.80847243660287"}}, "geometry": {"type": "Point", "coordinates": [88.8841574940197, 33.889688347117605]}}, {"type": "Feature", "properties": {"norad_id": 37959, "name": "COSMOS 2251 DEB", "group": "cosmos-2251-debris", "lat": 57.34692450088215, "lon": -169.1559579940305, "alt_km": 672.2055280236082, "timestamp": "2025-12-22T23:36:21.114589+00:00", "meta": {"OBJECT_NAME": "COSMOS 2251 DEB", "OBJECT_ID": "1993-036BPJ", "EPOCH": "2025-12-21T21:31:34.881600", "MEAN_MOTION": 14.58196001, "ECCENTRICITY": 0.00572652, "INCLINATION": 74.0108, "RA_OF_ASC_NODE": 39.4932, "ARG_OF_PERICENTER": 180.3481, "MEAN_ANOMALY": 356.9847, "EPHEMERIS_TYPE": 0, "CLASSIFICATION_TYPE": "U", "NORAD_CAT_ID": 37959, "ELEMENT_SET_NO": 999, "REV_AT_EPOCH": 80260, "BSTAR": 0.00054900426, "MEAN_MOTION_DOT": 2.561e-05, "MEAN_MOTION_DDOT": 0}, "tle": {"line1": "1 37959U 93036BPJ 25355.89693150  .00002561  00000+0  54900-3 0  9999", "line2": "2 37959  74.0108  39.4932 0057265 180.3481 356.9847 14.58196001802608"}}, "geometry": {"type": "Point", "coordinates": [-169.1559579940305, 57.34692450088215]}}, {"type": "Feature", "properties": {"norad_id": 37960, "name": "COSMOS 2251 DEB", "group": "cosmos-2251-debris", "lat": -66.33897137727635, "lon": 128.22388100988493, "alt_km": 908.5046178133716, "timestamp": "2025-12-22T23:36:21.114599+00:00", "meta": {"OBJECT_NAME": "COSMOS 2251 DEB", "OBJECT_ID": "1993-036BPK", "EPOCH": "2025-12-21T05:19:33.246912", "MEAN_MOTION": 14.07880113, "ECCENTRICITY": 0.0248301, "INCLINATION": 74.0587, "RA_OF_ASC_NODE": 172.0268, "ARG_OF_PERICENTER": 188.6422, "MEAN_ANOMALY": 171.0406, "EPHEMERIS_TYPE": 0, "CLASSIFICATION_TYPE": "U", "NORAD_CAT_ID": 37960, "ELEMENT_SET_NO": 999, "REV_AT_EPOCH": 77525, "BSTAR": 0.00064412, "MEAN_MOTION_DOT": 1.424e-05, "MEAN_MOTION_DDOT": 0}, "tle": {"line1": "1 37960U 93036BPK 25355.22191258  .00001424  00000+0  64412-3 0  9996", "line2": "2 37960  74.0587 172.0268 0248301 188.6422 171.0406 14.07880113775251"}}, "geometry": {"type": "Point", "coordinates": [128.22388100988493, -66.33897137727635]}}, {"type": "Feature", "properties": {"norad_id": 37961, "name": "COSMOS 2251 DEB", "group": "cosmos-2251-debris", "lat": 0.8452108904038709, "lon": -62.60944983240268, "alt_km": 674.1659929556399, "timestamp": "2025-12-22T23:36:21.114608+00:00", "meta": {"OBJECT_NAME": "COSMOS 2251 DEB", "OBJECT_ID": "1993-036BPL", "EPOCH": "2025-12-13T03:18:27.462240", "MEAN_MOTION": 14.57979799, "ECCENTRICITY": 0.00406759, "INCLINATION": 74.0407, "RA_OF_ASC_NODE": 136.3488, "ARG_OF_PERICENTER": 216.8805, "MEAN_ANOMALY": 142.9561, "EPHEMERIS_TYPE": 0, "CLASSIFICATION_TYPE": "U", "NORAD_CAT_ID": 37961, "ELEMENT_SET_NO": 999, "REV_AT_EPOCH": 80071, "BSTAR": 0.001729191, "MEAN_MOTION_DOT": 8.011e-05, "MEAN_MOTION_DDOT": 0}, "tle": {"line1": "1 37961U 93036BPL 25347.13781785  .00008011  00000+0  17292-2 0  9990", "line2": "2 37961  74.0407 136.3488 0040675 216.8805 142.9561 14.57979799800716"}}, "geometry": {"type": "Point", "coordinates": [-62.60944983240268, 0.8452108904038709]}}, {"type": "Feature", "properties": {"norad_id": 37966, "name": "COSMOS 2251 DEB", "group": "cosmos-2251-debris", "lat": 22.244661964349046, "lon": 22.480472373749432, "alt_km": 521.9453685604512, "timestamp": "2025-12-22T23:36:21.114618+00:00", "meta": {"OBJECT_NAME": "COSMOS 2251 DEB", "OBJECT_ID": "1993-036BPR", "EPOCH": "2025-12-13T08:51:38.421216", "MEAN_MOTION": 15.12745257, "ECCENTRICITY": 0.0008827, "INCLINATION": 73.9781, "RA_OF_ASC_NODE": 229.2381, "ARG_OF_PERICENTER": 105.5668, "MEAN_ANOMALY": 254.6501, "EPHEMERIS_TYPE": 0, "CLASSIFICATION_TYPE": "U", "NORAD_CAT_ID": 37966, "ELEMENT_SET_NO": 999, "REV_AT_EPOCH": 85352, "BSTAR": 0.0033929, "MEAN_MOTION_DOT": 0.00060007, "MEAN_MOTION_DDOT": 0}, "tle": {"line1": "1 37966U 93036BPR 25347.36919469  .00060007  00000+0  33929-2 0  9990", "line2": "2 37966  73.9781 229.2381 0008827 105.5668 254.6501 15.12745257853526"}}, "geometry": {"type": "Point", "coordinates": [22.480472373749432, 22.244661964349046]}}, {"type": "Feature", "properties": {"norad_id": 37967, "name": "COSMOS 2251 DEB", "group": "cosmos-2251-debris", "lat": 25.071012957951464, "lon": 126.11163944030608, "alt_km": 825.4727988352879, "timestamp": "2025-12-22T23:36:21.114629+00:00", "meta": {"OBJECT_NAME": "COSMOS 2251 DEB", "OBJECT_ID": "1993-036BPS", "EPOCH": "2025-12-22T01:49:01.207488", "MEAN_MOTION": 14.40612798, "ECCENTRICITY": 0.01510383, "INCLINATION": 74.0159, "RA_OF_ASC_NODE": 120.0869, "ARG_OF_PERICENTER": 256.8884, "MEAN_ANOMALY": 101.5378, "EPHEMERIS_TYPE": 0, "CLASSIFICATION_TYPE": "U", "NORAD_CAT_ID": 37967, "ELEMENT_SET_NO": 999, "REV_AT_EPOCH": 64870, "BSTAR": 0.0017999516, "MEAN_MOTION_DOT": 6.547e-05, "MEAN_MOTION_DDOT": 0}, "tle": {"line1": "1 37967U 93036BPS 25356.07570842  .00006547  00000+0  18000-2 0  9999", "line2": "2 37967  74.0159 120.0869 0151038 256.8884 101.5378 14.40612798648707"}}, "geometry": {"type": "Point", "coordinates": [126.11163944030608, 25.071012957951464]}}]}